[{"OBJECT_NAME":"HXMT (HUIYAN)","OBJECT_ID":"2017-034A","EPOCH":"2026-03-02T20:47:04.807968","MEAN_MOTION":15.17355273,"ECCENTRICITY":0.0032156,"INCLINATION":43.0149,"RA_OF_ASC_NODE":54.606,"ARG_OF_PERICENTER":194.0063,"MEAN_ANOMALY":165.9896,"EPHEMERIS_TYPE":0,"CLASSIFICATION_TYPE":"U","NORAD_CAT_ID":42758,"ELEMENT_SET_NO":999,"REV_AT_EPOCH":48150,"BSTAR":0.00032002,"MEAN_MOTION_DOT":6.353e-5,"MEAN_MOTION_DDOT":0},{"OBJECT_NAME":"SAOCOM 1A","OBJECT_ID":"2018-076A","EPOCH":"2026-03-02T19:21:58.873824","MEAN_MOTION":14.82160666,"ECCENTRICITY":0.0001286,"INCLINATION":97.8883,"RA_OF_ASC_NODE":250.0766,"ARG_OF_PERICENTER":83.4475,"MEAN_ANOMALY":276.6885,"EPHEMERIS_TYPE":0,"CLASSIFICATION_TYPE":"U","NORAD_CAT_ID":43641,"ELEMENT_SET_NO":999,"REV_AT_EPOCH":40034,"BSTAR":0.00012505,"MEAN_MOTION_DOT":9.43e-6,"MEAN_MOTION_DDOT":0},{"OBJECT_NAME":"H-2A R/B","OBJECT_ID":"2018-084L","EPOCH":"2026-03-02T14:10:58.119744","MEAN_MOTION":15.40984025,"ECCENTRICITY":0.0025913,"INCLINATION":98.8738,"RA_OF_ASC_NODE":277.4639,"ARG_OF_PERICENTER":49.2078,"MEAN_ANOMALY":311.1406,"EPHEMERIS_TYPE":0,"CLASSIFICATION_TYPE":"U","NORAD_CAT_ID":43682,"ELEMENT_SET_NO":999,"REV_AT_EPOCH":40468,"BSTAR":0.00054195,"MEAN_MOTION_DOT":0.0002253,"MEAN_MOTION_DDOT":0},{"OBJECT_NAME":"SAOCOM 1B","OBJECT_ID":"2020-059A","EPOCH":"2026-03-02T20:06:56.642976","MEAN_MOTION":14.82164798,"ECCENTRICITY":0.0001471,"INCLINATION":97.8884,"RA_OF_ASC_NODE":249.2053,"ARG_OF_PERICENTER":80.6266,"MEAN_ANOMALY":279.5113,"EPHEMERIS_TYPE":0,"CLASSIFICATION_TYPE":"U","NORAD_CAT_ID":46265,"ELEMENT_SET_NO":999,"REV_AT_EPOCH":29773,"BSTAR":8.5205e-5,"MEAN_MOTION_DOT":6.26e-6,"MEAN_MOTION_DDOT":0},{"OBJECT_NAME":"CSS (TIANHE)","OBJECT_ID":"2021-035A","EPOCH":"2026-03-02T19:17:14.095104","MEAN_MOTION":15.60315912,"ECCENTRICITY":0.0006617,"INCLINATION":41.4651,"RA_OF_ASC_NODE":250.0496,"ARG_OF_PERICENTER":230.1207,"MEAN_ANOMALY":129.905,"EPHEMERIS_TYPE":0,"CLASSIFICATION_TYPE":"U","NORAD_CAT_ID":48274,"ELEMENT_SET_NO":999,"REV_AT_EPOCH":27653,"BSTAR":0.00021017,"MEAN_MOTION_DOT":0.00017409,"MEAN_MOTION_DDOT":0},{"OBJECT_NAME":"COSMOS 2550","OBJECT_ID":"2021-056A","EPOCH":"2026-03-02T20:47:16.242144","MEAN_MOTION":15.33830804,"ECCENTRICITY":0.0008381,"INCLINATION":67.1424,"RA_OF_ASC_NODE":61.5723,"ARG_OF_PERICENTER":269.6976,"MEAN_ANOMALY":90.3218,"EPHEMERIS_TYPE":0,"CLASSIFICATION_TYPE":"U","NORAD_CAT_ID":48865,"ELEMENT_SET_NO":999,"REV_AT_EPOCH":26241,"BSTAR":2.7367e-7,"MEAN_MOTION_DOT":-1.83e-6,"MEAN_MOTION_DDOT":0},{"OBJECT_NAME":"CZ-2C R/B","OBJECT_ID":"2022-058K","EPOCH":"2026-03-02T05:54:04.972896","MEAN_MOTION":15.53608022,"ECCENTRICITY":0.00421533,"INCLINATION":50.1902,"RA_OF_ASC_NODE":356.5623,"ARG_OF_PERICENTER":169.0449,"MEAN_ANOMALY":191.1449,"EPHEMERIS_TYPE":0,"CLASSIFICATION_TYPE":"U","NORAD_CAT_ID":52794,"ELEMENT_SET_NO":999,"REV_AT_EPOCH":20897,"BSTAR":0.00049711634,"MEAN_MOTION_DOT":0.00033239,"MEAN_MOTION_DDOT":0},{"OBJECT_NAME":"CZ-2C R/B","OBJECT_ID":"2022-132E","EPOCH":"2026-03-02T13:53:18.727008","MEAN_MOTION":15.61126003,"ECCENTRICITY":0.002077,"INCLINATION":97.2955,"RA_OF_ASC_NODE":64.6834,"ARG_OF_PERICENTER":113.8391,"MEAN_ANOMALY":246.5046,"EPHEMERIS_TYPE":0,"CLASSIFICATION_TYPE":"U","NORAD_CAT_ID":54039,"ELEMENT_SET_NO":999,"REV_AT_EPOCH":18926,"BSTAR":0.00048949,"MEAN_MOTION_DOT":0.00041736,"MEAN_MOTION_DDOT":0},{"OBJECT_NAME":"GSLV R/B","OBJECT_ID":"2022-138AN","EPOCH":"2026-03-02T18:25:29.444160","MEAN_MOTION":14.96712862,"ECCENTRICITY":0.0021983,"INCLINATION":87.3884,"RA_OF_ASC_NODE":168.6784,"ARG_OF_PERICENTER":170.7176,"MEAN_ANOMALY":189.4466,"EPHEMERIS_TYPE":0,"CLASSIFICATION_TYPE":"U","NORAD_CAT_ID":54149,"ELEMENT_SET_NO":999,"REV_AT_EPOCH":18289,"BSTAR":0.00041951,"MEAN_MOTION_DOT":4.84e-5,"MEAN_MOTION_DDOT":0},{"OBJECT_NAME":"XRISM","OBJECT_ID":"2023-137A","EPOCH":"2026-03-02T20:07:32.782368","MEAN_MOTION":15.11403909,"ECCENTRICITY":0.0008219,"INCLINATION":31.0033,"RA_OF_ASC_NODE":327.9739,"ARG_OF_PERICENTER":329.5006,"MEAN_ANOMALY":30.5154,"EPHEMERIS_TYPE":0,"CLASSIFICATION_TYPE":"U","NORAD_CAT_ID":57800,"ELEMENT_SET_NO":999,"REV_AT_EPOCH":13675,"BSTAR":0.00043942,"MEAN_MOTION_DOT":7.71e-5,"MEAN_MOTION_DDOT":0},{"OBJECT_NAME":"ACS3","OBJECT_ID":"2024-077B","EPOCH":"2026-03-02T19:13:04.744704","MEAN_MOTION":13.89238489,"ECCENTRICITY":0.0054705,"INCLINATION":97.2116,"RA_OF_ASC_NODE":4.4609,"ARG_OF_PERICENTER":95.2616,"MEAN_ANOMALY":265.4793,"EPHEMERIS_TYPE":0,"CLASSIFICATION_TYPE":"U","NORAD_CAT_ID":59588,"ELEMENT_SET_NO":999,"REV_AT_EPOCH":9324,"BSTAR":0.015684,"MEAN_MOTION_DOT":0.00019327,"MEAN_MOTION_DDOT":0},{"OBJECT_NAME":"SZ-21 MODULE","OBJECT_ID":"2025-246C","EPOCH":"2026-03-02T13:24:56.678976","MEAN_MOTION":15.67907744,"ECCENTRICITY":0.0001469,"INCLINATION":41.4734,"RA_OF_ASC_NODE":247.2373,"ARG_OF_PERICENTER":286.7563,"MEAN_ANOMALY":73.3117,"EPHEMERIS_TYPE":0,"CLASSIFICATION_TYPE":"U","NORAD_CAT_ID":66515,"ELEMENT_SET_NO":999,"REV_AT_EPOCH":1695,"BSTAR":0.00034908,"MEAN_MOTION_DOT":0.00039531,"MEAN_MOTION_DDOT":0}]
